start=new Date('2022-05-12T00:00:00.000Z').valueOf();
sats=[{"MEAN_MOTION_DDOT":"0.0000000000000","TIME_SYSTEM":"UTC","DECAY_DATE":null,"EPHEMERIS_TYPE":"0","ECCENTRICITY":"0.00021420","REF_FRAME":"TEME","RCS_SIZE":"LARGE","REV_AT_EPOCH":"7019","RA_OF_ASC_NODE":"168.3190","PERIAPSIS":"545.748","MEAN_ELEMENT_THEORY":"SGP4","MEAN_ANOMALY":"318.8607","MEAN_MOTION":"15.06394097","CLASSIFICATION_TYPE":"U","NORAD_CAT_ID":"47579","ELEMENT_SET_NO":"999","INCLINATION":"53.0554","TLE_LINE1":"1 47579U 21009AH  22131.50608381 -.00000063  00000-0  14674-4 0  9990","SITE":"AFETR","EPOCH":"2022-05-11T12:08:45.641184","ARG_OF_PERICENTER":"41.2543","BSTAR":"0.00001467400000","SEMIMAJOR_AXIS":"6925.367","COUNTRY_CODE":"US","LAUNCH_DATE":"2021-02-04","FILE":"3440740","OBJECT_TYPE":"PAYLOAD","PERIOD":"95.593","MEAN_MOTION_DOT":"-0.00000063","CENTER_NAME":"EARTH","TLE_LINE2":"2 47579  53.0554 168.3190 0002142  41.2543 318.8607 15.06394097 70196","OBJECT_ID":"2021-009AH","GP_ID":"203275389","APOAPSIS":"548.715","OBJECT_NAME":"STARLINK-1981"},{"MEAN_MOTION_DOT":"-0.00001058","OBJECT_ID":"2021-009AJ","TLE_LINE2":"2 47580  53.0561 178.2237 0001754  50.7917 309.3228 15.06393784 70057","CENTER_NAME":"EARTH","OBJECT_TYPE":"PAYLOAD","PERIOD":"95.593","OBJECT_NAME":"STARLINK-1982","GP_ID":"203308674","APOAPSIS":"548.447","INCLINATION":"53.0561","TLE_LINE1":"1 47580U 21009AJ  22131.52727707 -.00001058  00000-0 -52158-4 0  9993","SITE":"AFETR","ELEMENT_SET_NO":"999","SEMIMAJOR_AXIS":"6925.368","COUNTRY_CODE":"US","LAUNCH_DATE":"2021-02-04","FILE":"3441154","ARG_OF_PERICENTER":"50.7917","EPOCH":"2022-05-11T12:39:16.738848","BSTAR":"-0.00005215800000","PERIAPSIS":"546.018","MEAN_ELEMENT_THEORY":"SGP4","RCS_SIZE":"LARGE","REV_AT_EPOCH":"7005","RA_OF_ASC_NODE":"178.2237","MEAN_ANOMALY":"309.3228","MEAN_MOTION":"15.06393784","CLASSIFICATION_TYPE":"U","NORAD_CAT_ID":"47580","MEAN_MOTION_DDOT":"0.0000000000000","TIME_SYSTEM":"UTC","ECCENTRICITY":"0.00017540","REF_FRAME":"TEME","DECAY_DATE":null,"EPHEMERIS_TYPE":"0"},{"TIME_SYSTEM":"UTC","MEAN_MOTION_DDOT":"0.0000000000000","REF_FRAME":"TEME","ECCENTRICITY":"0.00018710","EPHEMERIS_TYPE":"0","DECAY_DATE":null,"MEAN_ELEMENT_THEORY":"SGP4","PERIAPSIS":"545.949","RA_OF_ASC_NODE":"158.6099","REV_AT_EPOCH":"7032","RCS_SIZE":"LARGE","CLASSIFICATION_TYPE":"U","NORAD_CAT_ID":"47581","MEAN_ANOMALY":"309.6252","MEAN_MOTION":"15.06389871","SITE":"AFETR","TLE_LINE1":"1 47581U 21009AK  22131.44066182 -.00000107  00000-0  11699-4 0  9996","INCLINATION":"53.0534","ELEMENT_SET_NO":"999","LAUNCH_DATE":"2021-02-04","FILE":"3440740","COUNTRY_CODE":"US","SEMIMAJOR_AXIS":"6925.380","BSTAR":"0.00001169900000","EPOCH":"2022-05-11T10:34:33.181248","ARG_OF_PERICENTER":"50.4902","TLE_LINE2":"2 47581  53.0534 158.6099 0001871  50.4902 309.6252 15.06389871 70329","OBJECT_ID":"2021-009AK","CENTER_NAME":"EARTH","MEAN_MOTION_DOT":"-0.00000107","PERIOD":"95.593","OBJECT_TYPE":"PAYLOAD","OBJECT_NAME":"STARLINK-1984","APOAPSIS":"548.540","GP_ID":"203276390"},{"BSTAR":"0.00010054000000","EPOCH":"2022-05-11T10:15:57.649248","ARG_OF_PERICENTER":"38.8830","COUNTRY_CODE":"US","SEMIMAJOR_AXIS":"6925.363","FILE":"3440740","LAUNCH_DATE":"2021-02-04","ELEMENT_SET_NO":"999","TLE_LINE1":"1 47582U 21009AL  22131.42775057  .00001216  00000-0  10054-3 0  9997","INCLINATION":"53.0534","SITE":"AFETR","GP_ID":"203276130","APOAPSIS":"548.686","OBJECT_NAME":"STARLINK-1986","OBJECT_TYPE":"PAYLOAD","PERIOD":"95.592","CENTER_NAME":"EARTH","TLE_LINE2":"2 47582  53.0534 178.6708 0002105  38.8830 321.2310 15.06395219 70047","OBJECT_ID":"2021-009AL","MEAN_MOTION_DOT":"0.00001216","EPHEMERIS_TYPE":"0","DECAY_DATE":null,"ECCENTRICITY":"0.00021050","REF_FRAME":"TEME","MEAN_MOTION_DDOT":"0.0000000000000","TIME_SYSTEM":"UTC","CLASSIFICATION_TYPE":"U","NORAD_CAT_ID":"47582","MEAN_ANOMALY":"321.2310","MEAN_MOTION":"15.06395219","REV_AT_EPOCH":"7004","RCS_SIZE":"LARGE","RA_OF_ASC_NODE":"178.6708","PERIAPSIS":"545.770","MEAN_ELEMENT_THEORY":"SGP4"},{"CENTER_NAME":"EARTH","TLE_LINE2":"2 47583  53.0548 178.1610 0001665  62.1888 297.9270 15.06386446 70061","OBJECT_ID":"2021-009AM","MEAN_MOTION_DOT":"-0.00000958","PERIOD":"95.593","OBJECT_TYPE":"PAYLOAD","OBJECT_NAME":"STARLINK-1987","APOAPSIS":"548.408","GP_ID":"203308425","SITE":"AFETR","TLE_LINE1":"1 47583U 21009AM  22131.53834006 -.00000958  00000-0 -45414-4 0  9993","INCLINATION":"53.0548","ELEMENT_SET_NO":"999","LAUNCH_DATE":"2021-02-04","FILE":"3441154","COUNTRY_CODE":"US","SEMIMAJOR_AXIS":"6925.390","BSTAR":"-0.00004541400000","EPOCH":"2022-05-11T12:55:12.581184","ARG_OF_PERICENTER":"62.1888","MEAN_ELEMENT_THEORY":"SGP4","PERIAPSIS":"546.102","RA_OF_ASC_NODE":"178.1610","REV_AT_EPOCH":"7006","RCS_SIZE":"LARGE","NORAD_CAT_ID":"47583","CLASSIFICATION_TYPE":"U","MEAN_MOTION":"15.06386446","MEAN_ANOMALY":"297.9270","TIME_SYSTEM":"UTC","MEAN_MOTION_DDOT":"0.0000000000000","REF_FRAME":"TEME","ECCENTRICITY":"0.00016650","EPHEMERIS_TYPE":"0","DECAY_DATE":null},{"MEAN_MOTION_DOT":"-0.00000769","OBJECT_ID":"2021-009AP","TLE_LINE2":"2 47585  53.0558 178.3539 0002319  33.0579 327.0555 15.06386893 70053","CENTER_NAME":"EARTH","OBJECT_TYPE":"PAYLOAD","PERIOD":"95.593","OBJECT_NAME":"STARLINK-1989","GP_ID":"203275643","APOAPSIS":"548.860","TLE_LINE1":"1 47585U 21009AP  22131.49779089 -.00000769  00000-0 -32716-4 0  9990","INCLINATION":"53.0558","SITE":"AFETR","ELEMENT_SET_NO":"999","SEMIMAJOR_AXIS":"6925.389","COUNTRY_CODE":"US","FILE":"3440740","LAUNCH_DATE":"2021-02-04","EPOCH":"2022-05-11T11:56:49.132896","ARG_OF_PERICENTER":"33.0579","BSTAR":"-0.00003271600000","PERIAPSIS":"545.648","MEAN_ELEMENT_THEORY":"SGP4","RCS_SIZE":"LARGE","REV_AT_EPOCH":"7005","RA_OF_ASC_NODE":"178.3539","MEAN_MOTION":"15.06386893","MEAN_ANOMALY":"327.0555","NORAD_CAT_ID":"47585","CLASSIFICATION_TYPE":"U","MEAN_MOTION_DDOT":"0.0000000000000","TIME_SYSTEM":"UTC","ECCENTRICITY":"0.00023190","REF_FRAME":"TEME","DECAY_DATE":null,"EPHEMERIS_TYPE":"0"},{"MEAN_MOTION_DOT":"-0.00001908","OBJECT_ID":"2021-009AQ","TLE_LINE2":"2 47586  53.0552 197.5319 0001817  46.9959 313.1182 15.06381211 69806","CENTER_NAME":"EARTH","PERIOD":"95.593","OBJECT_TYPE":"PAYLOAD","OBJECT_NAME":"STARLINK-1990","APOAPSIS":"548.529","GP_ID":"203309425","SITE":"AFETR","TLE_LINE1":"1 47586U 21009AQ  22131.68025478 -.00001908  00000-0 -10924-3 0  9990","INCLINATION":"53.0552","ELEMENT_SET_NO":"999","FILE":"3441154","LAUNCH_DATE":"2021-02-04","SEMIMAJOR_AXIS":"6925.406","COUNTRY_CODE":"US","ARG_OF_PERICENTER":"46.9959","EPOCH":"2022-05-11T16:19:34.012992","BSTAR":"-0.00010924000000","MEAN_ELEMENT_THEORY":"SGP4","PERIAPSIS":"546.013","RA_OF_ASC_NODE":"197.5319","RCS_SIZE":"LARGE","REV_AT_EPOCH":"6980","MEAN_ANOMALY":"313.1182","MEAN_MOTION":"15.06381211","NORAD_CAT_ID":"47586","CLASSIFICATION_TYPE":"U","TIME_SYSTEM":"UTC","MEAN_MOTION_DDOT":"0.0000000000000","REF_FRAME":"TEME","ECCENTRICITY":"0.00018170","DECAY_DATE":null,"EPHEMERIS_TYPE":"0"},{"MEAN_ELEMENT_THEORY":"SGP4","PERIAPSIS":"545.983","REV_AT_EPOCH":"7020","RCS_SIZE":"LARGE","RA_OF_ASC_NODE":"168.1551","NORAD_CAT_ID":"47587","CLASSIFICATION_TYPE":"U","MEAN_ANOMALY":"306.7335","MEAN_MOTION":"15.06394392","MEAN_MOTION_DDOT":"0.0000000000000","TIME_SYSTEM":"UTC","ECCENTRICITY":"0.00018020","REF_FRAME":"TEME","EPHEMERIS_TYPE":"0","DECAY_DATE":null,"OBJECT_ID":"2021-009AR","TLE_LINE2":"2 47587  53.0530 168.1551 0001802  53.3820 306.7335 15.06394392 70206","CENTER_NAME":"EARTH","MEAN_MOTION_DOT":"0.00000314","OBJECT_TYPE":"PAYLOAD","PERIOD":"95.592","OBJECT_NAME":"STARLINK-1991","GP_ID":"203276630","APOAPSIS":"548.479","INCLINATION":"53.0530","TLE_LINE1":"1 47587U 21009AR  22131.54293938  .00000314  00000-0  39966-4 0  9990","SITE":"AFETR","ELEMENT_SET_NO":"999","COUNTRY_CODE":"US","SEMIMAJOR_AXIS":"6925.366","FILE":"3440740","LAUNCH_DATE":"2021-02-04","BSTAR":"0.00003996600000","ARG_OF_PERICENTER":"53.3820","EPOCH":"2022-05-11T13:01:49.962432"},{"CLASSIFICATION_TYPE":"U","NORAD_CAT_ID":"47588","MEAN_MOTION":"15.06396961","MEAN_ANOMALY":"307.1514","MEAN_ELEMENT_THEORY":"SGP4","PERIAPSIS":"546.093","REV_AT_EPOCH":"7004","RCS_SIZE":"LARGE","RA_OF_ASC_NODE":"178.7683","ECCENTRICITY":"0.00016320","REF_FRAME":"TEME","EPHEMERIS_TYPE":"0","DECAY_DATE":null,"MEAN_MOTION_DDOT":"0.0000000000000","TIME_SYSTEM":"UTC","OBJECT_NAME":"STARLINK-1993","GP_ID":"203275390","APOAPSIS":"548.353","OBJECT_ID":"2021-009AS","TLE_LINE2":"2 47588  53.0538 178.7683 0001632  52.9624 307.1514 15.06396961 70046","CENTER_NAME":"EARTH","MEAN_MOTION_DOT":"0.00000976","OBJECT_TYPE":"PAYLOAD","PERIOD":"95.592","COUNTRY_CODE":"US","SEMIMAJOR_AXIS":"6925.358","FILE":"3440740","LAUNCH_DATE":"2021-02-04","BSTAR":"0.00008441700000","EPOCH":"2022-05-11T09:38:48.306336","ARG_OF_PERICENTER":"52.9624","TLE_LINE1":"1 47588U 21009AS  22131.40194799  .00000976  00000-0  84417-4 0  9996","INCLINATION":"53.0538","SITE":"AFETR","ELEMENT_SET_NO":"999"},{"REF_FRAME":"TEME","ECCENTRICITY":"0.00020480","EPHEMERIS_TYPE":"0","DECAY_DATE":null,"TIME_SYSTEM":"UTC","MEAN_MOTION_DDOT":"0.0000000000000","CLASSIFICATION_TYPE":"U","NORAD_CAT_ID":"47589","MEAN_ANOMALY":"316.7132","MEAN_MOTION":"15.06386098","PERIAPSIS":"545.838","MEAN_ELEMENT_THEORY":"SGP4","RA_OF_ASC_NODE":"178.1061","REV_AT_EPOCH":"7066","RCS_SIZE":"LARGE","LAUNCH_DATE":"2021-02-04","FILE":"3440979","COUNTRY_CODE":"US","SEMIMAJOR_AXIS":"6925.391","BSTAR":"-0.00008008800000","EPOCH":"2022-05-11T13:16:26.040288","ARG_OF_PERICENTER":"43.4018","SITE":"AFETR","TLE_LINE1":"1 47589U 21009AT  22131.55307917 -.00001474  00000-0 -80088-4 0  9997","INCLINATION":"53.0535","ELEMENT_SET_NO":"999","OBJECT_NAME":"STARLINK-1994","APOAPSIS":"548.674","GP_ID":"203284047","OBJECT_ID":"2021-009AT","TLE_LINE2":"2 47589  53.0535 178.1061 0002048  43.4018 316.7132 15.06386098 70662","CENTER_NAME":"EARTH","MEAN_MOTION_DOT":"-0.00001474","PERIOD":"95.593","OBJECT_TYPE":"PAYLOAD"}];
